STARLINK-3769           
1 52300U 22041AR  26068.45892814 -.00000476  00000+0 -11851-4 0  9990
2 52300  53.2177 100.1565 0001331  96.7246 263.3898 15.08838223215699
DISKSAT A               
1 67222U 25305D   26068.54789610  .00013824  00000+0  90452-3 0  9996
2 67222  45.0023 251.6019 0004082 318.1929  41.8634 15.07741062 12266
